[{"OBJECT_NAME":"PROPCUBE 1 (FLORA)","OBJECT_ID":"2015-058N","EPOCH":"2026-03-09T22:10:52.593312","MEAN_MOTION":14.88641208,"ECCENTRICITY":0.01301152,"INCLINATION":64.774,"RA_OF_ASC_NODE":242.7389,"ARG_OF_PERICENTER":100.0601,"MEAN_ANOMALY":261.522,"EPHEMERIS_TYPE":0,"CLASSIFICATION_TYPE":"U","NORAD_CAT_ID":40976,"ELEMENT_SET_NO":999,"REV_AT_EPOCH":10148,"BSTAR":0.00044491072,"MEAN_MOTION_DOT":4.703e-5,"MEAN_MOTION_DDOT":0},{"OBJECT_NAME":"NOAA 17 DEB","OBJECT_ID":"2002-032AK","EPOCH":"2026-03-09T21:38:07.584288","MEAN_MOTION":14.72171671,"ECCENTRICITY":0.00088597,"INCLINATION":98.6625,"RA_OF_ASC_NODE":53.5964,"ARG_OF_PERICENTER":107.609,"MEAN_ANOMALY":252.6084,"EPHEMERIS_TYPE":0,"CLASSIFICATION_TYPE":"U","NORAD_CAT_ID":48702,"ELEMENT_SET_NO":999,"REV_AT_EPOCH":26213,"BSTAR":0.0042109452,"MEAN_MOTION_DOT":0.00026595,"MEAN_MOTION_DDOT":0}]
